FLOCK 4G-5              
1 62663U 25009BG  26068.45638436  .00011278  00000+0  40688-3 0  9997
2 62663  97.4058 151.2478 0002094 314.5072  45.5996 15.28679529 63699
STARLINK-36105          
1 66850U 25281C   26068.16551601  .00030319  00000+0  11062-2 0  9997
2 66850  43.0051 346.5850 0001890 259.7852 100.2787 15.27596539 16102
